#aV2024  8 30  0  0  0.00000000     288 DD+AD WGS84 FIT  NGA
## 2329 432000.00000000   300.00000000 60552 0.0000000000000
+   31     2  3  4  5  6  7  8  9 10 11 12 13 14 15 16 17 18
+         19 20 21 22 23 24 25 26 27 28 29 30 31 32  0  0  0
+          0  0  0  0  0  0  0  0  0  0  0  0  0  0  0  0  0
+          0  0  0  0  0  0  0  0  0  0  0  0  0  0  0  0  0
+          0  0  0  0  0  0  0  0  0  0  0  0  0  0  0  0  0
++         2  2  2  2  2  2  2  2  2  2  2  2  2  2  2  2  2
++         2  2  2  2  2  2  2  2  2  2  2  2  2  2  0  0  0
++         0  0  0  0  0  0  0  0  0  0  0  0  0  0  0  0  0
++         0  0  0  0  0  0  0  0  0  0  0  0  0  0  0  0  0
++         0  0  0  0  0  0  0  0  0  0  0  0  0  0  0  0  0
%c cc cc ccc ccc cccc cccc cccc cccc ccccc ccccc ccccc ccccc
%c cc cc ccc ccc cccc cccc cccc cccc ccccc ccccc ccccc ccccc
%f  0.0000000  0.000000000  0.00000000000  0.000000000000000
%f  0.0000000  0.000000000  0.00000000000  0.000000000000000
%i    0    0    0    0      0      0      0      0         0
%i    0    0    0    0      0      0      0      0         0
/*      NGA, ST. LOUIS,MO.                                  
/*   EPHEMERIS COMPUTED FROM 2 DAYS OF DATA                 
/*   EPOCHA v9 SMOOTHER                                     
/*   G2296 IERS2010 SATIGS SATAPC                           
*  2024  8 30 13 20  0.00000000
P  2   7009.148647  13761.422162 -21178.166940   -368.449426                    
V  2 -27619.185755   4254.081450  -5924.478612      0.078008                    
P  3  12551.576456  23289.773555  -3127.712420    519.636088                    
V  3  -3628.662616  -2112.773459 -31895.615435      0.141514                    
P  4   3405.206429  19329.315412  17842.534911    434.165358                    
V  4 -12383.921344  19054.751295 -18430.781014      0.072812                    
P  5   -953.258973 -20580.608156  16537.426155   -184.929820                    
V  5  13876.769441  16315.356118  20940.188862     -0.012667                    
P  6  25243.126041  -5310.843171   6622.913856     64.627902                    
V  6   8334.596577   1393.607705 -30847.990147     -0.252170                    
P  7  22895.219367   7497.760895  12202.209926    -44.289213                    
V  7 -14399.411654   2909.561219  25926.846611      0.051635                    
P  8  -4522.666928  24487.395845  -8704.299345    334.800543                    
V  8  -7519.718941   8682.384584  29128.971892      0.137617                    
P  9  12170.499930   9506.875261  21512.099002    335.522441                    
V  9 -12215.077274  24689.682731  -4039.396151      0.158200                    
P 10 -16962.422549  -1448.642080 -20268.306175   -109.480465                    
V 10 -13599.324044 -22229.069792  12515.028686     -0.116890                    
P 11  15020.563267 -12519.423493  17974.763341   -728.524211                    
V 11  22784.136838   1372.974149 -18176.178145     -0.048955                    
P 12  -8737.822849 -24423.133632  -6096.014664   -534.304270                    
V 12   5871.650393   5168.310426 -30477.682838     -0.028782                    
P 13  13411.188747 -22608.702657  -2966.249446    673.753102                    
V 13   4162.250049  -1368.560452  31871.574175      0.021173                    
P 14  18686.025130   5177.846047 -18202.697897    484.233423                    
V 14  10784.681784  20580.032232  16660.479453      0.086365                    
P 15    973.371473 -24972.680028  -9248.693944    198.510761                    
V 15   6551.714783  -9567.033781  28272.081319      0.043513                    
P 16  -4944.989391  18002.339337  18377.449732   -194.540155                    
V 16 -12989.870805 -20491.804434  16718.122810      0.102816                    
P 17  18182.090729  -6756.211824 -17802.114213    641.104260                    
V 17 -10524.935375  20922.825165 -18098.845139     -0.104217                    
P 18 -23256.245895  -6762.852536  11171.172953   -650.080411                    
V 18  13983.431174  -2378.198080  27504.460390     -0.026856                    
P 19  18996.889356 -13569.646964 -12415.264513    531.493689                    
V 19  -6480.726033  14467.717900 -26468.410279      0.050291                    
P 20   7662.006214 -13920.768551  21366.789878    371.149163                    
V 20  18847.992129  19306.501833   5689.267773     -0.003936                    
P 21   1183.502166  14960.851494 -21460.421219    102.674241                    
V 21 -28083.576627   3521.722624   1918.520309     -0.006790                    
P 22  15051.240343  -3274.798604 -21193.397568    -56.752685                    
V 22  12522.221089  24973.336454   5227.788005     -0.039658                    
P 23 -19387.744866 -13424.103375 -12407.354762    308.987026                    
V 23  -7541.347354 -13853.993987  26503.449601      0.085207                    
P 24  -4896.840817 -15370.035691 -21566.285209   -486.758718                    
V 24  26115.414269  -4127.736126  -2637.788775     -0.001885                    
P 25 -17129.574636 -19988.829455   4126.192818    499.507434                    
V 25   -723.143337  -6308.760005 -30755.339919      0.001195                    
P 26 -13809.914338   7898.545286  21130.723069     89.813427                    
V 26 -16630.150270 -21650.234910  -2380.728786     -0.080747                    
P 27 -12493.052670  23122.177291   1268.092471    -33.558194                    
V 27  -1980.535429  -3197.594226  31979.624878     -0.003106                    
P 28 -25764.452001   5036.242394   4037.117930   -392.456217                    
V 28  -5355.235917  -2293.196165 -31223.493518     -0.144088                    
P 29  -8919.125560 -13246.149498  21158.616800   -580.984206                    
V 29  14598.301307 -22680.335143  -8150.347596      0.023150                    
P 30  26641.202068     25.056913   2000.780740   -330.612486                    
V 30  -2164.900040   3478.009065  30884.623124      0.069711                    
P 31 -19652.147956  10770.651238  14322.306828   -225.302407                    
V 31 -18494.588347  -1485.257696 -23503.242545      0.004391                    
P 32 -17797.408456   8590.152583 -17434.618796   -601.673414                    
V 32   8424.224221 -21085.464673 -18955.531336      0.032196                    
EOF
